GLOBALSTAR M054 [-]     
1 25885U 99043C   24114.28462394 -.00000080  00000+0 -22715-3 0  9992
2 25885  52.0109 151.9112 0004845 177.6033 276.5203 11.39202572 71190
GLOBALSTAR M053 [-]     
1 25886U 99043D   24114.37953187 -.00000073  00000+0 -12028-3 0  9996
2 25886  51.9985  75.4851 0003487  84.7515  86.6288 11.27654697 72083
GLOBALSTAR M058 [-]     
1 25907U 99049A   24114.36390951 -.00000092  00000+0 -96738-4 0  9991
2 25907  51.9917 150.1919 0002480 190.6945 169.3837 11.93176000491426
GLOBALSTAR M033 [-]     
1 25909U 99049C   24114.31564021 -.00000013  00000+0  76221-3 0  9995
2 25909  51.9906  90.1974 0011709 125.4656 234.7285 12.20270329484481
GLOBALSTAR M055 [-]     
1 25910U 99049D   24114.33524919 -.00000040  00000+0  46426-3 0  9995
2 25910  51.9994 121.3221 0006979 340.4541  19.6042 12.29399869116648
